ORBCOMM FM06            
1 25118U 97084G   26183.20816748  .00001457  00000+0  43093-3 0  9999
2 25118  45.0147 340.3994 0000378 185.3995 344.6234 14.47601217496569
ORBCOMM FM04            
1 25159U 98007C   26182.95618983  .00000783  00000+0  31325-3 0  9998
2 25159 107.9627 199.8166 0041740 299.4550  60.2429 14.35766640478718
ORBCOMM FM19            
1 25415U 98046C   26183.27129458  .00000941  00000+0  34433-3 0  9995
2 25415  44.9922 171.8592 0004015 347.1083  27.2155 14.39520422458953
ORBCOMM FM20            
1 25416U 98046D   26182.74059474  .00000528  00000+0  21916-3 0  9990
2 25416  44.9921 182.4652 0002359 299.2840  60.7773 14.38083068458884
ORBCOMM FM27            
1 25481U 98053G   26181.93226480  .00000799  00000+0  30133-3 0  9994
2 25481  45.0052 270.0688 0002109 243.3176 116.7457 14.39166005452217
ORBCOMM FM32            
1 25982U 99065C   26182.81913674  .00000742  00000+0  29463-3 0  9992
2 25982  45.0149 103.9796 0004478 121.7676 238.3609 14.37150816389196
ORBCOMM FM109           
1 40086U 14040A   26183.23397212  .00000509  00000+0  14381-3 0  9999
2 40086  47.0042  20.3465 0001901 286.1940  73.8736 14.58861971636546
ORBCOMM FM110           
1 41182U 15081D   26183.03373052  .00000727  00000+0  18977-3 0  9994
2 41182  47.0026 291.2442 0002873 162.2005 197.8982 14.58903386559793
ORBCOMM FM118           
1 41183U 15081E   26182.99955864  .00000455  00000+0  13245-3 0  9997
2 41183  47.0046 291.7400 0002308 115.8229 244.2895 14.58893905559896
ORBCOMM FM112           
1 41184U 15081F   26182.31899694  .00000446  00000+0  13051-3 0  9997
2 41184  46.9971 203.4205 0004156 273.2489  86.7921 14.58919300561019
ORBCOMM FM113           
1 41185U 15081G   26182.77549024  .00000289  00000+0  97348-4 0  9994
2 41185  46.9988 201.6454 0002630 274.5809  85.4776 14.58870780561066
ORBCOMM FM108           
1 41187U 15081J   26183.08014689  .00000637  00000+0  17088-3 0  9994
2 41187  47.0046 111.7822 0003169 275.7635  84.2889 14.58892771562251
ORBCOMM FM117           
1 41188U 15081K   26183.11425477  .00000580  00000+0  15885-3 0  9990
2 41188  47.0009 110.2511 0003624 280.3217  79.7260 14.58880158562308
ORBCOMM FM116           
1 41189U 15081L   26182.47813415  .00000304  00000+0  10040-3 0  9994
2 41189  47.0005 203.0491 0000940 184.3505 175.7373 14.58897315561027
